LEMUR-2-AMANDA-SVANTE   
1 48269U 21034B   26068.77637527  .00030872  00000+0  11134-2 0  9996
2 48269  97.5829 144.8625 0002703 205.4721 154.6385 15.28469003265849
STARLINK-33873          
1 63655U 25083X   26068.22561378  .00021787  00000+0  79846-3 0  9990
2 63655  43.0043   8.0199 0002204 269.7434  90.3165 15.27597423 50027
