[{"OBJECT_NAME":"LEMUR-2-AMANDA-SVANTE","OBJECT_ID":"2021-034B","EPOCH":"2026-03-09T18:37:58.823328","MEAN_MOTION":15.28469003,"ECCENTRICITY":0.00027027,"INCLINATION":97.5829,"RA_OF_ASC_NODE":144.8625,"ARG_OF_PERICENTER":205.4721,"MEAN_ANOMALY":154.6385,"EPHEMERIS_TYPE":0,"CLASSIFICATION_TYPE":"U","NORAD_CAT_ID":48269,"ELEMENT_SET_NO":999,"REV_AT_EPOCH":26584,"BSTAR":0.0011134246,"MEAN_MOTION_DOT":0.00030872,"MEAN_MOTION_DDOT":0},{"OBJECT_NAME":"STARLINK-33873","OBJECT_ID":"2025-083X","EPOCH":"2026-03-09T05:24:53.030592","MEAN_MOTION":15.27597423,"ECCENTRICITY":0.00022042,"INCLINATION":43.0043,"RA_OF_ASC_NODE":8.0199,"ARG_OF_PERICENTER":269.7434,"MEAN_ANOMALY":90.3165,"EPHEMERIS_TYPE":0,"CLASSIFICATION_TYPE":"U","NORAD_CAT_ID":63655,"ELEMENT_SET_NO":999,"REV_AT_EPOCH":5002,"BSTAR":0.0007984622,"MEAN_MOTION_DOT":0.00021787,"MEAN_MOTION_DDOT":0}]
